IRIDIUM 126             
1 42809U 17039G   26199.82355243  .00000026  00000+0  22975-5 0  9999
2 42809  86.3991 340.4200 0001973  93.0094 267.1327 14.34217668474486
IRIDIUM 124             
1 42810U 17039H   26199.73656402  .00000103  00000+0  24667-4 0  9997
2 42810  86.4479 277.1679 0002247  96.9153 263.2303 14.43274853479664
IRIDIUM 128             
1 42811U 17039J   26199.46545127  .00000096  00000+0  27184-4 0  9997
2 42811  86.3969  12.0693 0002282  93.5669 266.5788 14.34217649474460
IRIDIUM 121             
1 42812U 17039K   26199.77281242  .00000002  00000+0 -64517-5 0  9997
2 42812  86.3997 340.4688 0002255  93.1057 267.0397 14.34217428474356
IRIDIUM 133             
1 42955U 17061A   26199.42739321  .00000100  00000+0  28776-4 0  9992
2 42955  86.3969  12.2038 0002213  91.4738 268.6712 14.34217930459255
IRIDIUM 100             
1 42956U 17061B   26199.76989426  .00000097  00000+0  27629-4 0  9994
2 42956  86.3968  11.9783 0002219  90.7999 269.3451 14.34218061459305
IRIDIUM 122             
1 42957U 17061C   26199.38933606  .00000048  00000+0  99196-5 0  9997
2 42957  86.3970  12.1377 0002125  91.1007 269.0432 14.34216449459250
IRIDIUM 129             
1 42958U 17061D   26199.48447669  .00000058  00000+0  13489-4 0  9999
2 42958  86.3969  12.1654 0002101  88.2967 271.8470 14.34215871459287
IRIDIUM 119             
1 42959U 17061E   26199.03415462  .00000080  00000+0  21678-4 0  9991
2 42959  86.3970  12.3494 0002114  91.4855 268.6583 14.34217346459233
IRIDIUM 107             
1 42960U 17061F   26199.47179077  .00000041  00000+0  75833-5 0  9990
2 42960  86.3971  12.1880 0002161  97.1712 262.9729 14.34217470459305
IRIDIUM 132             
1 42961U 17061G   26199.47813531  .00000091  00000+0  25380-4 0  9997
2 42961  86.3970  12.1646 0002178  90.7869 269.3576 14.34217423459304
IRIDIUM 136             
1 42962U 17061H   26199.71915347  .00000093  00000+0  26310-4 0  9999
2 42962  86.3971  12.0707 0002256  90.6720 269.4734 14.34218009459358
IRIDIUM 139             
1 42963U 17061J   26199.72549709  .00000091  00000+0  25526-4 0  9992
2 42963  86.3973  12.1304 0002265  92.4370 267.7085 14.34217920459368
IRIDIUM 125             
1 42964U 17061K   26199.71281058  .00000089  00000+0  24699-4 0  9999
2 42964  86.3974  12.1974 0001704  97.2939 262.8451 14.34218206459376
IRIDIUM 135             
1 43070U 17083A   26199.82647176  .00000000  00000+0 -71600-5 0  9990
2 43070  86.3984 308.7903 0002116  95.2465 264.8972 14.34217719448682
IRIDIUM 138             
1 43071U 17083B   26199.78207227  .00000192  00000+0  61449-4 0  9995
2 43071  86.4001 308.5089 0002030  93.9917 266.1511 14.34217073448664
